$$SOE
2459580.500000000, A.D. 2022-Jan-01 00:00:00.0000, 3.564848528796703E+08, 2.458495502248574E+08, 5.321256448622887E+07,
2459587.500000000, A.D. 2022-Jan-08 00:00:00.0000, 3.500279192150524E+08, 2.546395109220793E+08, 5.179377930219111E+07,
2459594.500000000, A.D. 2022-Jan-15 00:00:00.0000, 3.433658903732226E+08, 2.632801866889229E+08, 5.034463653390290E+07,
2459601.500000000, A.D. 2022-Jan-22 00:00:00.0000, 3.365022086965131E+08, 2.717661596569544E+08, 4.886591732281531E+07,
2459608.500000000, A.D. 2022-Jan-29 00:00:00.0000, 3.294404826863332E+08, 2.800921053510637E+08, 4.735842841686548E+07,
2459615.500000000, A.D. 2022-Feb-05 00:00:00.0000, 3.221844822293779E+08, 2.882527984089242E+08, 4.582300165587230E+07,
2459622.500000000, A.D. 2022-Feb-12 00:00:00.0000, 3.147381357005662E+08, 2.962431171449914E+08, 4.426049312374178E+07,
2459629.500000000, A.D. 2022-Feb-19 00:00:00.0000, 3.071055276202291E+08, 3.040580493089282E+08, 4.267178228299178E+07,
2459636.500000000, A.D. 2022-Feb-26 00:00:00.0000, 2.992908955569892E+08, 3.116926982979760E+08, 4.105777115372649E+07,
2459643.500000000, A.D. 2022-Mar-05 00:00:00.0000, 2.912986264406374E+08, 3.191422891897539E+08, 3.941938347336946E+07,
2459650.500000000, A.D. 2022-Mar-12 00:00:00.0000, 2.831332525133392E+08, 3.264021745133482E+08, 3.775756381291260E+07,
2459657.500000000, A.D. 2022-Mar-19 00:00:00.0000, 2.747994469978486E+08, 3.334678397706154E+08, 3.607327664705981E+07,
2459664.500000000, A.D. 2022-Mar-26 00:00:00.0000, 2.663020195137704E+08, 3.403349086861210E+08, 3.436750537751341E+07,
2459671.500000000, A.D. 2022-Apr-02 00:00:00.0000, 2.576459113193483E+08, 3.469991481149505E+08, 3.264125130062145E+07,
2459678.500000000, A.D. 2022-Apr-09 00:00:00.0000, 2.488361906617379E+08, 3.534564725993386E+08, 3.089553249708594E+07,
2459685.500000000, A.D. 2022-Apr-16 00:00:00.0000, 2.398780486056675E+08, 3.597029492150615E+08, 2.913138266680935E+07,
2459692.500000000, A.D. 2022-Apr-23 00:00:00.0000, 2.307767940849217E+08, 3.657348037771634E+08, 2.734985011602545E+07,
2459699.500000000, A.D. 2022-Apr-30 00:00:00.0000, 2.215378463172413E+08, 3.715484261454866E+08, 2.555199688725360E+07,
2459706.500000000, A.D. 2022-May-07 00:00:00.0000, 2.121667276589845E+08, 3.771403726483704E+08, 2.373889759334017E+07,
2459713.500000000, A.D. 2022-May-14 00:00:00.0000, 2.026690583068694E+08, 3.825073686539523E+08, 2.191163807941967E+07,
2459720.500000000, A.D. 2022-May-21 00:00:00.0000, 1.930505508315877E+08, 3.876463120367262E+08, 2.007131416380122E+07,
2459727.500000000, A.D. 2022-May-28 00:00:00.0000, 1.833170040798294E+08, 3.925542765717561E+08, 1.821903042643204E+07,
2459734.500000000, A.D. 2022-Jun-04 00:00:00.0000, 1.734742967383007E+08, 3.972285149369072E+08, 1.635589899721247E+07,
2459741.500000000, A.D. 2022-Jun-11 00:00:00.0000, 1.635283807215634E+08, 4.016664613197130E+08, 1.448303833434615E+07,
2459748.500000000, A.D. 2022-Jun-18 00:00:00.0000, 1.534852744398606E+08, 4.058657336377982E+08, 1.260157199355569E+07,
2459755.500000000, A.D. 2022-Jun-25 00:00:00.0000, 1.433510559939955E+08, 4.098241353366198E+08, 1.071262738606215E+07,
2459762.500000000, A.D. 2022-Jul-02 00:00:00.0000, 1.331318564490153E+08, 4.135396566971751E+08, 8.817334510982037E+06,
2459769.500000000, A.D. 2022-Jul-09 00:00:00.0000, 1.228338535949072E+08, 4.170104758309162E+08, 6.916824644099146E+06,
2459776.500000000, A.D. 2022-Jul-16 00:00:00.0000, 1.124632661582220E+08, 4.202349604465863E+08, 5.012229079636514E+06,
2459783.500000000, A.D. 2022-Jul-23 00:00:00.0000, 1.020263462861257E+08, 4.232116704667023E+08, 3.104678135798931E+06,
2459790.500000000, A.D. 2022-Jul-30 00:00:00.0000, 9.152937040342577E+07, 4.259393581382411E+08, 1.195300145418257E+06,
2459797.500000000, A.D. 2022-Aug-06 00:00:00.0000, 8.097863205738847E+07, 4.284169662899749E+08, -7.147798422244489E+05,
2459804.500000000, A.D. 2022-Aug-13 00:00:00.0000, 7.038043594545883E+07, 4.306436274950593E+08, -2.624441345062137E+06,
2459811.500000000, A.D. 2022-Aug-20 00:00:00.0000, 5.974109157170715E+07, 4.326186636378029E+08, -4.532569611566931E+06,
2459818.500000000, A.D. 2022-Aug-27 00:00:00.0000, 4.906690661319079E+07, 4.343415851640701E+08, -6.438056726144940E+06,
2459825.500000000, A.D. 2022-Sep-03 00:00:00.0000, 3.836418025780305E+07, 4.358120899145416E+08, -8.339802685468823E+06,
2459832.500000000, A.D. 2022-Sep-10 00:00:00.0000, 2.763919661846282E+07, 4.370300615760298E+08, -1.023671644965705E+07,
2459839.500000000, A.D. 2022-Sep-17 00:00:00.0000, 1.689821826812675E+07, 4.379955677602220E+08, -1.212771696919873E+07,
2459846.500000000, A.D. 2022-Sep-24 00:00:00.0000, 6.147479970358757E+06, 4.387088576694093E+08, -1.401173419565806E+07,
2459853.500000000, A.D. 2022-Oct-01 00:00:00.0000, -4.606817141727685E+06, 4.391703593371582E+08, -1.588771009849620E+07,
2459860.500000000, A.D. 2022-Oct-08 00:00:00.0000, -1.535851051961005E+07, 4.393806769771440E+08, -1.775459968140304E+07,
2459867.500000000, A.D. 2022-Oct-15 00:00:00.0000, -2.610148120763378E+07, 4.393405896520467E+08, -1.961137181376651E+07,
2459874.500000000, A.D. 2022-Oct-22 00:00:00.0000, -3.682966107576320E+07, 4.390510495895650E+08, -2.145700981391078E+07,
2459881.500000000, A.D. 2022-Oct-29 00:00:00.0000, -4.753703977139249E+07, 4.385131775610314E+08, -2.329051222374111E+07,
2459888.500000000, A.D. 2022-Nov-05 00:00:00.0000, -5.821766928562447E+07, 4.377282580786038E+08, -2.511089374269426E+07,
2459895.500000000, A.D. 2022-Nov-12 00:00:00.0000, -6.886566809113365E+07, 4.366977356939402E+08, -2.691718603717980E+07,
2459902.500000000, A.D. 2022-Nov-19 00:00:00.0000, -7.947522556420158E+07, 4.354232114570248E+08, -2.870843843713516E+07,
2459909.500000000, A.D. 2022-Nov-26 00:00:00.0000, -9.004060642386360E+07, 4.339064391507890E+08, -3.048371857585943E+07,
2459916.500000000, A.D. 2022-Dec-03 00:00:00.0000, -1.005561550182373E+08, 4.321493213036970E+08, -3.224211298914309E+07,
2459923.500000000, A.D. 2022-Dec-10 00:00:00.0000, -1.110162994092706E+08, 4.301539050128684E+08, -3.398272767634426E+07,
2459930.500000000, A.D. 2022-Dec-17 00:00:00.0000, -1.214155552285992E+08, 4.279223775664769E+08, -3.570468862783022E+07,
2459937.500000000, A.D. 2022-Dec-24 00:00:00.0000, -1.317485291932021E+08, 4.254570618129658E+08, -3.740714233436513E+07,
2459944.500000000, A.D. 2022-Dec-31 00:00:00.0000, -1.420099219221229E+08, 4.227604113974696E+08, -3.908925630265965E+07,
2459951.500000000, A.D. 2023-Jan-07 00:00:00.0000, -1.521945299316449E+08, 4.198350068406786E+08, -4.075021951004519E+07,
2459958.500000000, A.D. 2023-Jan-14 00:00:00.0000, -1.622972487764958E+08, 4.166835529704223E+08, -4.238924257796146E+07,
2459965.500000000, A.D. 2023-Jan-21 00:00:00.0000, -1.723130779813172E+08, 4.133088745444455E+08, -4.400555786469507E+07,
2459972.500000000, A.D. 2023-Jan-28 00:00:00.0000, -1.822371240968435E+08, 4.097139098769829E+08, -4.559841982944326E+07,
2459979.500000000, A.D. 2023-Feb-04 00:00:00.0000, -1.920646020952437E+08, 4.059017055090674E+08, -4.716710540206689E+07,
2459986.500000000, A.D. 2023-Feb-11 00:00:00.0000, -2.017908369039267E+08, 4.018754117425644E+08, -4.871091421116589E+07,
2459993.500000000, A.D. 2023-Feb-18 00:00:00.0000, -2.114112651446434E+08, 3.976382782261251E+08, -5.022916873300532E+07,
2460000.500000000, A.D. 2023-Feb-25 00:00:00.0000, -2.209214368195182E+08, 3.931936494419398E+08, -5.172121439966722E+07,
2460007.500000000, A.D. 2023-Mar-04 00:00:00.0000, -2.303170168466574E+08, 3.885449601225674E+08, -5.318641967544568E+07,
2460014.500000000, A.D. 2023-Mar-11 00:00:00.0000, -2.395937864217771E+08, 3.836957306083066E+08, -5.462417610529056E+07,
2460021.500000000, A.D. 2023-Mar-18 00:00:00.0000, -2.487476441640914E+08, 3.786495621049429E+08, -5.603389834488945E+07,
2460028.500000000, A.D. 2023-Mar-25 00:00:00.0000, -2.577746068486493E+08, 3.734101318032887E+08, -5.741502419610770E+07,
2460035.500000000, A.D. 2023-Apr-01 00:00:00.0000, -2.666708093062917E+08, 3.679811882618352E+08, -5.876701465577041E+07,
2460042.500000000, A.D. 2023-Apr-08 00:00:00.0000, -2.754325041127509E+08, 3.623665482850246E+08, -6.008935382253392E+07,
2460049.500000000, A.D. 2023-Apr-15 00:00:00.0000, -2.840560634096213E+08, 3.565700941986451E+08, -6.138154853932901E+07,
2460056.500000000, A.D. 2023-Apr-22 00:00:00.0000, -2.925379810515230E+08, 3.505957684753721E+08, -6.264312818717475E+07,
2460063.500000000, A.D. 2023-Apr-29 00:00:00.0000, -3.008748723499063E+08, 3.444475679645200E+08, -6.387364469685149E+07,
2460070.500000000, A.D. 2023-May-06 00:00:00.0000, -3.090634731834157E+08, 3.381295395106616E+08, -6.507267247270638E+07,
2460077.500000000, A.D. 2023-May-13 00:00:00.0000, -3.171006394608048E+08, 3.316457760733048E+08, -6.623980821416271E+07,
2460084.500000000, A.D. 2023-May-20 00:00:00.0000, -3.249833467103055E+08, 3.250004128617699E+08, -6.737467069861196E+07,
2460091.500000000, A.D. 2023-May-27 00:00:00.0000, -3.327086896094975E+08, 3.181976234605692E+08, -6.847690054790264E+07,
2460098.500000000, A.D. 2023-Jun-03 00:00:00.0000, -3.402738814050050E+08, 3.112416159753668E+08, -6.954615998350841E+07,
2460105.500000000, A.D. 2023-Jun-10 00:00:00.0000, -3.476762532046852E+08, 3.041366291889040E+08, -7.058213257534871E+07,
2460112.500000000, A.D. 2023-Jun-17 00:00:00.0000, -3.549132530595364E+08, 2.968869286689966E+08, -7.158452299877352E+07,
2460119.500000000, A.D. 2023-Jun-24 00:00:00.0000, -3.619824445215787E+08, 2.894968028856473E+08, -7.255305682578368E+07,
2460126.500000000, A.D. 2023-Jul-01 00:00:00.0000, -3.688815044310018E+08, 2.819705601661624E+08, -7.348748030722333E+07,
2460133.500000000, A.D. 2023-Jul-08 00:00:00.0000, -3.756082216137773E+08, 2.743125273110650E+08, -7.438755992666289E+07,
2460140.500000000, A.D. 2023-Jul-15 00:00:00.0000, -3.821604977736515E+08, 2.665270470427417E+08, -7.525308184184745E+07,
2460147.500000000, A.D. 2023-Jul-22 00:00:00.0000, -3.885363470617797E+08, 2.586184732531729E+08, -7.608385162202783E+07,
$$EOE